{
  "norad_id": 69005,
  "name": "CAS500-2 RIDESHARE OBJECT AB",
  "history": [
    {
      "epoch": "2026-05-09T20:00:04.000032Z",
      "apogee_km": 509.8135850957724,
      "perigee_km": 501.1993936331819,
      "latitude_deg": -82.3431680460273,
      "longitude_deg": -33.406840074174205,
      "height_km": 536.6720476086781,
      "semi_major_axis_km": 6883.643489364476,
      "eccentricity": 0.0006257,
      "inclination_deg": 97.4068,
      "raan_deg": 28.3403,
      "arg_perigee_deg": 137.4652,
      "mean_anomaly_deg": 130.3686,
      "mean_motion_rev_day": 15.2011067
    }
  ]
}