CAS500-2 RIDESHARE OBJE*
1 69005U 26100AB  26129.83337963 -.00057282  00000+0 -26693-2 0  9994
2 69005  97.4068  28.3403 0006257 137.4652 130.3686 15.20110670  1836
